[{"OBJECT_NAME":"RASSVET-3 9","OBJECT_ID":"2026-061J","EPOCH":"2026-04-04T17:59:05.676864","MEAN_MOTION":15.8996247,"ECCENTRICITY":0.0024972,"INCLINATION":82.296,"RA_OF_ASC_NODE":95.0755,"ARG_OF_PERICENTER":29.9158,"MEAN_ANOMALY":330.3535,"EPHEMERIS_TYPE":0,"CLASSIFICATION_TYPE":"U","NORAD_CAT_ID":68368,"ELEMENT_SET_NO":999,"REV_AT_EPOCH":191,"BSTAR":0.00045213,"MEAN_MOTION_DOT":0.00138261,"MEAN_MOTION_DDOT":5.5853e-6},{"OBJECT_NAME":"RASSVET-3 10","OBJECT_ID":"2026-061K","EPOCH":"2026-04-04T19:31:25.685472","MEAN_MOTION":15.89259602,"ECCENTRICITY":0.0025725,"INCLINATION":82.2971,"RA_OF_ASC_NODE":95.0066,"ARG_OF_PERICENTER":29.2887,"MEAN_ANOMALY":330.982,"EPHEMERIS_TYPE":0,"CLASSIFICATION_TYPE":"U","NORAD_CAT_ID":68369,"ELEMENT_SET_NO":999,"REV_AT_EPOCH":192,"BSTAR":0.00022927,"MEAN_MOTION_DOT":0.00067951,"MEAN_MOTION_DDOT":4.6704e-7},{"OBJECT_NAME":"RASSVET-3 11","OBJECT_ID":"2026-061L","EPOCH":"2026-04-04T18:00:16.657056","MEAN_MOTION":15.89289604,"ECCENTRICITY":0.0025478,"INCLINATION":82.297,"RA_OF_ASC_NODE":95.0772,"ARG_OF_PERICENTER":29.4612,"MEAN_ANOMALY":330.8088,"EPHEMERIS_TYPE":0,"CLASSIFICATION_TYPE":"U","NORAD_CAT_ID":68370,"ELEMENT_SET_NO":999,"REV_AT_EPOCH":191,"BSTAR":0.00025518,"MEAN_MOTION_DOT":0.00075664,"MEAN_MOTION_DDOT":8.5031e-7},{"OBJECT_NAME":"RASSVET-3 12","OBJECT_ID":"2026-061M","EPOCH":"2026-04-04T17:59:51.545760","MEAN_MOTION":15.89354026,"ECCENTRICITY":0.0025445,"INCLINATION":82.297,"RA_OF_ASC_NODE":95.0769,"ARG_OF_PERICENTER":29.4513,"MEAN_ANOMALY":330.8186,"EPHEMERIS_TYPE":0,"CLASSIFICATION_TYPE":"U","NORAD_CAT_ID":68371,"ELEMENT_SET_NO":999,"REV_AT_EPOCH":191,"BSTAR":0.00026158,"MEAN_MOTION_DOT":0.00077799,"MEAN_MOTION_DDOT":9.6509e-7},{"OBJECT_NAME":"RASSVET-3 13","OBJECT_ID":"2026-061N","EPOCH":"2026-04-04T17:59:36.882816","MEAN_MOTION":15.89353342,"ECCENTRICITY":0.002523,"INCLINATION":82.297,"RA_OF_ASC_NODE":95.0765,"ARG_OF_PERICENTER":29.2717,"MEAN_ANOMALY":330.9961,"EPHEMERIS_TYPE":0,"CLASSIFICATION_TYPE":"U","NORAD_CAT_ID":68372,"ELEMENT_SET_NO":999,"REV_AT_EPOCH":191,"BSTAR":0.00025516,"MEAN_MOTION_DOT":0.00075857,"MEAN_MOTION_DDOT":8.6188e-7},{"OBJECT_NAME":"RASSVET-3 14","OBJECT_ID":"2026-061P","EPOCH":"2026-04-04T16:28:17.406912","MEAN_MOTION":15.89422871,"ECCENTRICITY":0.0025207,"INCLINATION":82.2969,"RA_OF_ASC_NODE":95.1474,"ARG_OF_PERICENTER":29.2284,"MEAN_ANOMALY":331.0392,"EPHEMERIS_TYPE":0,"CLASSIFICATION_TYPE":"U","NORAD_CAT_ID":68373,"ELEMENT_SET_NO":999,"REV_AT_EPOCH":190,"BSTAR":0.00024719,"MEAN_MOTION_DOT":0.00073755,"MEAN_MOTION_DDOT":7.5433e-7},{"OBJECT_NAME":"RASSVET-3 15","OBJECT_ID":"2026-061Q","EPOCH":"2026-04-04T17:58:50.276064","MEAN_MOTION":15.89441366,"ECCENTRICITY":0.0024964,"INCLINATION":82.2969,"RA_OF_ASC_NODE":95.076,"ARG_OF_PERICENTER":29.1246,"MEAN_ANOMALY":331.1411,"EPHEMERIS_TYPE":0,"CLASSIFICATION_TYPE":"U","NORAD_CAT_ID":68374,"ELEMENT_SET_NO":999,"REV_AT_EPOCH":191,"BSTAR":0.00025735,"MEAN_MOTION_DOT":0.00076801,"MEAN_MOTION_DDOT":9.1374e-7},{"OBJECT_NAME":"RASSVET-3 16","OBJECT_ID":"2026-061R","EPOCH":"2026-04-04T19:26:08.487744","MEAN_MOTION":15.90295198,"ECCENTRICITY":0.0024024,"INCLINATION":82.2958,"RA_OF_ASC_NODE":95.0004,"ARG_OF_PERICENTER":30.5602,"MEAN_ANOMALY":329.7063,"EPHEMERIS_TYPE":0,"CLASSIFICATION_TYPE":"U","NORAD_CAT_ID":68375,"ELEMENT_SET_NO":999,"REV_AT_EPOCH":192,"BSTAR":0.00027282,"MEAN_MOTION_DOT":0.00084821,"MEAN_MOTION_DDOT":1.3862e-6},{"OBJECT_NAME":"SUPERVIEW NEO-2 OBJECT A","OBJECT_ID":"2026-062A","EPOCH":"2026-04-04T20:49:24.909888","MEAN_MOTION":15.20626473,"ECCENTRICITY":0.0006595,"INCLINATION":97.4368,"RA_OF_ASC_NODE":103.2169,"ARG_OF_PERICENTER":227.9983,"MEAN_ANOMALY":132.0691,"EPHEMERIS_TYPE":0,"CLASSIFICATION_TYPE":"U","NORAD_CAT_ID":68377,"ELEMENT_SET_NO":999,"REV_AT_EPOCH":151,"BSTAR":0.00021404,"MEAN_MOTION_DOT":4.628e-5,"MEAN_MOTION_DDOT":0},{"OBJECT_NAME":"SUPERVIEW NEO-2 OBJECT B","OBJECT_ID":"2026-062B","EPOCH":"2026-03-31T17:19:08.069952","MEAN_MOTION":15.2058506,"ECCENTRICITY":0.00089524,"INCLINATION":97.4347,"RA_OF_ASC_NODE":99.1253,"ARG_OF_PERICENTER":250.4427,"MEAN_ANOMALY":109.5842,"EPHEMERIS_TYPE":0,"CLASSIFICATION_TYPE":"U","NORAD_CAT_ID":68378,"ELEMENT_SET_NO":999,"REV_AT_EPOCH":88,"BSTAR":0.00019790811,"MEAN_MOTION_DOT":4.27e-5,"MEAN_MOTION_DDOT":0},{"OBJECT_NAME":"CZ-2D R/B","OBJECT_ID":"2026-062C","EPOCH":"2026-04-04T20:44:45.634848","MEAN_MOTION":15.31233329,"ECCENTRICITY":0.0052606,"INCLINATION":97.4982,"RA_OF_ASC_NODE":103.2485,"ARG_OF_PERICENTER":27.2301,"MEAN_ANOMALY":333.168,"EPHEMERIS_TYPE":0,"CLASSIFICATION_TYPE":"U","NORAD_CAT_ID":68379,"ELEMENT_SET_NO":999,"REV_AT_EPOCH":152,"BSTAR":0.00045817,"MEAN_MOTION_DOT":0.00014358,"MEAN_MOTION_DDOT":0},{"OBJECT_NAME":"STARLINK-36296","OBJECT_ID":"2026-063A","EPOCH":"2026-04-04T20:00:01.999008","MEAN_MOTION":15.97378722,"ECCENTRICITY":9.94e-5,"INCLINATION":97.2833,"RA_OF_ASC_NODE":235.7936,"ARG_OF_PERICENTER":29.9844,"MEAN_ANOMALY":199.4748,"EPHEMERIS_TYPE":0,"CLASSIFICATION_TYPE":"U","NORAD_CAT_ID":68380,"ELEMENT_SET_NO":999,"REV_AT_EPOCH":266,"BSTAR":0.0013087,"MEAN_MOTION_DOT":0.00571455,"MEAN_MOTION_DDOT":0.00014091},{"OBJECT_NAME":"STARLINK-37111","OBJECT_ID":"2026-063B","EPOCH":"2026-04-04T20:00:01.999008","MEAN_MOTION":15.90380874,"ECCENTRICITY":0.0001677,"INCLINATION":97.2835,"RA_OF_ASC_NODE":235.7872,"ARG_OF_PERICENTER":76.7327,"MEAN_ANOMALY":137.0321,"EPHEMERIS_TYPE":0,"CLASSIFICATION_TYPE":"U","NORAD_CAT_ID":68381,"ELEMENT_SET_NO":999,"REV_AT_EPOCH":266,"BSTAR":-0.006635,"MEAN_MOTION_DOT":-0.0199219,"MEAN_MOTION_DDOT":0.0010645},{"OBJECT_NAME":"STARLINK-36946","OBJECT_ID":"2026-063C","EPOCH":"2026-04-04T20:00:01.999008","MEAN_MOTION":15.90505987,"ECCENTRICITY":0.000163,"INCLINATION":97.2826,"RA_OF_ASC_NODE":235.788,"ARG_OF_PERICENTER":81.0463,"MEAN_ANOMALY":136.0997,"EPHEMERIS_TYPE":0,"CLASSIFICATION_TYPE":"U","NORAD_CAT_ID":68382,"ELEMENT_SET_NO":999,"REV_AT_EPOCH":266,"BSTAR":-0.0066321,"MEAN_MOTION_DOT":-0.02003794,"MEAN_MOTION_DDOT":0.0010775},{"OBJECT_NAME":"STARLINK-37121","OBJECT_ID":"2026-063D","EPOCH":"2026-04-04T20:00:01.999008","MEAN_MOTION":15.90748562,"ECCENTRICITY":0.0001635,"INCLINATION":97.2828,"RA_OF_ASC_NODE":235.7913,"ARG_OF_PERICENTER":78.4052,"MEAN_ANOMALY":145.3162,"EPHEMERIS_TYPE":0,"CLASSIFICATION_TYPE":"U","NORAD_CAT_ID":68383,"ELEMENT_SET_NO":999,"REV_AT_EPOCH":266,"BSTAR":-0.0065384,"MEAN_MOTION_DOT":-0.01999882,"MEAN_MOTION_DDOT":0.0010762},{"OBJECT_NAME":"STARLINK-37137","OBJECT_ID":"2026-063E","EPOCH":"2026-04-04T20:00:01.999008","MEAN_MOTION":15.90640865,"ECCENTRICITY":0.0001619,"INCLINATION":97.2829,"RA_OF_ASC_NODE":235.7897,"ARG_OF_PERICENTER":78.8376,"MEAN_ANOMALY":141.3719,"EPHEMERIS_TYPE":0,"CLASSIFICATION_TYPE":"U","NORAD_CAT_ID":68384,"ELEMENT_SET_NO":999,"REV_AT_EPOCH":266,"BSTAR":-0.0065552,"MEAN_MOTION_DOT":-0.01994189,"MEAN_MOTION_DDOT":0.0010693}]
